start=new Date('2022-06-03T00:00:00.000Z').valueOf();
sats=[{"FILE":"3477983","SITE":"AFETR","EPHEMERIS_TYPE":"0","ELEMENT_SET_NO":"999","REV_AT_EPOCH":"12793","BSTAR":"0.00023747000000","GP_ID":"205209545","MEAN_MOTION":"15.06391505","COUNTRY_CODE":"US","PERIOD":"95.593","MEAN_MOTION_DOT":"0.00003256","TLE_LINE1":"1 45227U 20012BB  22153.76408466  .00003256  00000-0  23747-3 0  9991","INCLINATION":"53.0576","ECCENTRICITY":"0.00019020","MEAN_ANOMALY":"289.6585","CENTER_NAME":"EARTH","EPOCH":"2022-06-02T18:20:16.914624","TLE_LINE2":"2 45227  53.0576  63.3791 0001902  70.4610 289.6585 15.06391505127937","NORAD_CAT_ID":"45227","RA_OF_ASC_NODE":"63.3791","OBJECT_NAME":"STARLINK-1221","REF_FRAME":"TEME","OBJECT_ID":"2020-012BB","APOAPSIS":"548.557","LAUNCH_DATE":"2020-02-17","RCS_SIZE":"LARGE","SEMIMAJOR_AXIS":"6925.375","CLASSIFICATION_TYPE":"U","PERIAPSIS":"545.922","TIME_SYSTEM":"UTC","OBJECT_TYPE":"PAYLOAD","DECAY_DATE":null,"MEAN_MOTION_DDOT":"0.0000000000000","ARG_OF_PERICENTER":"70.4610","MEAN_ELEMENT_THEORY":"SGP4"},{"INCLINATION":"53.0572","TLE_LINE1":"1 45228U 20012BC  22153.76777146  .00000167  00000-0  30113-4 0  9990","MEAN_MOTION_DOT":"0.00000167","COUNTRY_CODE":"US","PERIOD":"95.592","MEAN_MOTION":"15.06396790","BSTAR":"0.00003011300000","GP_ID":"205209794","REV_AT_EPOCH":"12790","ELEMENT_SET_NO":"999","SITE":"AFETR","EPHEMERIS_TYPE":"0","FILE":"3477983","DECAY_DATE":null,"OBJECT_TYPE":"PAYLOAD","MEAN_MOTION_DDOT":"0.0000000000000","MEAN_ELEMENT_THEORY":"SGP4","ARG_OF_PERICENTER":"61.9533","TIME_SYSTEM":"UTC","PERIAPSIS":"545.890","LAUNCH_DATE":"2020-02-17","SEMIMAJOR_AXIS":"6925.358","RCS_SIZE":"LARGE","CLASSIFICATION_TYPE":"U","APOAPSIS":"548.557","OBJECT_ID":"2020-012BC","REF_FRAME":"TEME","OBJECT_NAME":"STARLINK-1222","RA_OF_ASC_NODE":"63.3684","TLE_LINE2":"2 45228  53.0572  63.3684 0001926  61.9533 298.1651 15.06396790127907","NORAD_CAT_ID":"45228","CENTER_NAME":"EARTH","EPOCH":"2022-06-02T18:25:35.454144","MEAN_ANOMALY":"298.1651","ECCENTRICITY":"0.00019260"},{"PERIAPSIS":"545.853","SEMIMAJOR_AXIS":"6925.371","LAUNCH_DATE":"2020-02-17","RCS_SIZE":"LARGE","CLASSIFICATION_TYPE":"U","APOAPSIS":"548.620","DECAY_DATE":null,"MEAN_MOTION_DDOT":"0.0000000000000","OBJECT_TYPE":"PAYLOAD","ARG_OF_PERICENTER":"52.9853","MEAN_ELEMENT_THEORY":"SGP4","TIME_SYSTEM":"UTC","CENTER_NAME":"EARTH","EPOCH":"2022-06-02T11:10:21.775584","MEAN_ANOMALY":"307.1318","ECCENTRICITY":"0.00019980","REF_FRAME":"TEME","OBJECT_ID":"2020-012BD","OBJECT_NAME":"STARLINK-1226","RA_OF_ASC_NODE":"64.7430","NORAD_CAT_ID":"45229","TLE_LINE2":"2 45229  53.0559  64.7430 0001998  52.9853 307.1318 15.06392560127868","MEAN_MOTION":"15.06392560","GP_ID":"205173213","BSTAR":"-0.00000550190000","INCLINATION":"53.0559","TLE_LINE1":"1 45229U 20012BD  22153.46552981 -.00000364  00000-0 -55019-5 0  9990","MEAN_MOTION_DOT":"-0.00000364","COUNTRY_CODE":"US","PERIOD":"95.593","ELEMENT_SET_NO":"999","EPHEMERIS_TYPE":"0","SITE":"AFETR","FILE":"3477482","REV_AT_EPOCH":"12786"},{"MEAN_MOTION_DDOT":"0.0000000000000","DECAY_DATE":null,"OBJECT_TYPE":"PAYLOAD","ARG_OF_PERICENTER":"43.3499","MEAN_ELEMENT_THEORY":"SGP4","TIME_SYSTEM":"UTC","PERIAPSIS":"546.452","LAUNCH_DATE":"2020-02-17","SEMIMAJOR_AXIS":"6925.363","RCS_SIZE":"LARGE","CLASSIFICATION_TYPE":"U","APOAPSIS":"548.005","REF_FRAME":"TEME","OBJECT_ID":"2020-012BE","RA_OF_ASC_NODE":"63.5505","OBJECT_NAME":"STARLINK-1227","NORAD_CAT_ID":"45230","TLE_LINE2":"2 45230  53.0556  63.5505 0001121  43.3499 316.7578 15.06395204128026","CENTER_NAME":"EARTH","EPOCH":"2022-06-02T17:27:12.272832","ECCENTRICITY":"0.00011210","MEAN_ANOMALY":"316.7578","INCLINATION":"53.0556","TLE_LINE1":"1 45230U 20012BE  22153.72722538 -.00000267  00000-0  94674-6 0  9990","MEAN_MOTION_DOT":"-0.00000267","COUNTRY_CODE":"US","PERIOD":"95.592","MEAN_MOTION":"15.06395204","BSTAR":"0.00000094674000","GP_ID":"205209294","REV_AT_EPOCH":"12802","ELEMENT_SET_NO":"999","SITE":"AFETR","EPHEMERIS_TYPE":"0","FILE":"3477983"},{"TLE_LINE2":"2 45231  53.0238 256.0260 0009158 292.4862  67.5187 15.77040183130212","NORAD_CAT_ID":"45231","REF_FRAME":"TEME","OBJECT_ID":"2020-012BF","RA_OF_ASC_NODE":"256.0260","OBJECT_NAME":"STARLINK-1229","ECCENTRICITY":"0.00091580","MEAN_ANOMALY":"67.5187","CENTER_NAME":"EARTH","EPOCH":"2022-06-02T16:32:24.296640","TIME_SYSTEM":"UTC","OBJECT_TYPE":"PAYLOAD","DECAY_DATE":null,"MEAN_MOTION_DDOT":"0.0000000000000","ARG_OF_PERICENTER":"292.4862","MEAN_ELEMENT_THEORY":"SGP4","LAUNCH_DATE":"2020-02-17","RCS_SIZE":"LARGE","SEMIMAJOR_AXIS":"6716.969","CLASSIFICATION_TYPE":"U","APOAPSIS":"344.985","PERIAPSIS":"332.682","REV_AT_EPOCH":"13021","SITE":"AFETR","EPHEMERIS_TYPE":"0","FILE":"3477983","ELEMENT_SET_NO":"999","MEAN_MOTION_DOT":"0.00025931","COUNTRY_CODE":"US","PERIOD":"91.310","INCLINATION":"53.0238","TLE_LINE1":"1 45231U 20012BF  22153.68917010  .00025931  00000-0  15938-3 0  9994","MEAN_MOTION":"15.77040183","BSTAR":"0.00015938000000","GP_ID":"205210046"},{"TIME_SYSTEM":"UTC","ARG_OF_PERICENTER":"57.4431","MEAN_ELEMENT_THEORY":"SGP4","MEAN_MOTION_DDOT":"0.0000000000000","DECAY_DATE":null,"OBJECT_TYPE":"PAYLOAD","APOAPSIS":"548.434","SEMIMAJOR_AXIS":"6925.408","LAUNCH_DATE":"2020-02-17","RCS_SIZE":"LARGE","CLASSIFICATION_TYPE":"U","PERIAPSIS":"546.112","TLE_LINE2":"2 45232  53.0558  63.5002 0001676  57.4431 302.6719 15.06380594128015","NORAD_CAT_ID":"45232","OBJECT_NAME":"STARLINK-1235","RA_OF_ASC_NODE":"63.5002","OBJECT_ID":"2020-012BG","REF_FRAME":"TEME","MEAN_ANOMALY":"302.6719","ECCENTRICITY":"0.00016760","EPOCH":"2022-06-02T17:43:09.780960","CENTER_NAME":"EARTH","PERIOD":"95.593","COUNTRY_CODE":"US","MEAN_MOTION_DOT":"-0.00001524","TLE_LINE1":"1 45232U 20012BG  22153.73830765 -.00001524  00000-0 -83456-4 0  9997","INCLINATION":"53.0558","GP_ID":"205210295","BSTAR":"-0.00008345600000","MEAN_MOTION":"15.06380594","REV_AT_EPOCH":"12801","FILE":"3477983","SITE":"AFETR","EPHEMERIS_TYPE":"0","ELEMENT_SET_NO":"999"},{"TLE_LINE1":"1 45233U 20012BH  22153.78436194  .00000829  00000-0  74530-4 0  9999","INCLINATION":"53.0551","PERIOD":"95.592","COUNTRY_CODE":"US","MEAN_MOTION_DOT":"0.00000829","BSTAR":"0.00007453000000","GP_ID":"205208544","MEAN_MOTION":"15.06399302","REV_AT_EPOCH":"12772","ELEMENT_SET_NO":"999","FILE":"3477983","SITE":"AFETR","EPHEMERIS_TYPE":"0","ARG_OF_PERICENTER":"56.9130","MEAN_ELEMENT_THEORY":"SGP4","MEAN_MOTION_DDOT":"0.0000000000000","DECAY_DATE":null,"OBJECT_TYPE":"PAYLOAD","TIME_SYSTEM":"UTC","PERIAPSIS":"546.022","APOAPSIS":"548.410","LAUNCH_DATE":"2020-02-17","SEMIMAJOR_AXIS":"6925.351","RCS_SIZE":"LARGE","CLASSIFICATION_TYPE":"U","RA_OF_ASC_NODE":"83.3020","OBJECT_NAME":"STARLINK-1238","OBJECT_ID":"2020-012BH","REF_FRAME":"TEME","NORAD_CAT_ID":"45233","TLE_LINE2":"2 45233  53.0551  83.3020 0001724  56.9130 303.2025 15.06399302127724","EPOCH":"2022-06-02T18:49:28.871616","CENTER_NAME":"EARTH","MEAN_ANOMALY":"303.2025","ECCENTRICITY":"0.00017240"},{"TIME_SYSTEM":"UTC","DECAY_DATE":null,"OBJECT_TYPE":"PAYLOAD","MEAN_MOTION_DDOT":"0.0000000000000","MEAN_ELEMENT_THEORY":"SGP4","ARG_OF_PERICENTER":"52.2090","APOAPSIS":"548.376","LAUNCH_DATE":"2020-02-17","SEMIMAJOR_AXIS":"6925.363","RCS_SIZE":"LARGE","CLASSIFICATION_TYPE":"U","PERIAPSIS":"546.081","TLE_LINE2":"2 45234  53.0548 104.3134 0001657  52.2090 307.9049 15.06395192127393","NORAD_CAT_ID":"45234","RA_OF_ASC_NODE":"104.3134","OBJECT_NAME":"STARLINK-1243","REF_FRAME":"TEME","OBJECT_ID":"2020-012BJ","ECCENTRICITY":"0.00016570","MEAN_ANOMALY":"307.9049","CENTER_NAME":"EARTH","EPOCH":"2022-06-02T13:23:02.746752","COUNTRY_CODE":"US","PERIOD":"95.592","MEAN_MOTION_DOT":"-0.00000530","TLE_LINE1":"1 45234U 20012BJ  22153.55767068 -.00000530  00000-0 -16704-4 0  9992","INCLINATION":"53.0548","GP_ID":"205173963","BSTAR":"-0.00001670400000","MEAN_MOTION":"15.06395192","REV_AT_EPOCH":"12739","FILE":"3477482","SITE":"AFETR","EPHEMERIS_TYPE":"0","ELEMENT_SET_NO":"999"},{"TIME_SYSTEM":"UTC","ARG_OF_PERICENTER":"58.1665","MEAN_ELEMENT_THEORY":"SGP4","DECAY_DATE":null,"MEAN_MOTION_DDOT":"0.0000000000000","OBJECT_TYPE":"PAYLOAD","APOAPSIS":"548.691","RCS_SIZE":"LARGE","LAUNCH_DATE":"2020-02-17","SEMIMAJOR_AXIS":"6925.364","CLASSIFICATION_TYPE":"U","PERIAPSIS":"545.766","TLE_LINE2":"2 45235  53.0538 105.5664 0002112  58.1665 301.9529 15.06395044126475","NORAD_CAT_ID":"45235","RA_OF_ASC_NODE":"105.5664","OBJECT_NAME":"STARLINK-1246","REF_FRAME":"TEME","OBJECT_ID":"2020-012BK","ECCENTRICITY":"0.00021120","MEAN_ANOMALY":"301.9529","EPOCH":"2022-06-02T06:39:39.926016","CENTER_NAME":"EARTH","PERIOD":"95.592","COUNTRY_CODE":"US","MEAN_MOTION_DOT":"-0.00000177","TLE_LINE1":"1 45235U 20012BK  22153.27754544 -.00000177  00000-0  70456-5 0  9998","INCLINATION":"53.0538","GP_ID":"205184980","BSTAR":"0.00000704560000","MEAN_MOTION":"15.06395044","REV_AT_EPOCH":"12647","FILE":"3477744","EPHEMERIS_TYPE":"0","SITE":"AFETR","ELEMENT_SET_NO":"999"},{"OBJECT_TYPE":"PAYLOAD","DECAY_DATE":null,"MEAN_MOTION_DDOT":"0.0000000000000","ARG_OF_PERICENTER":"50.9885","MEAN_ELEMENT_THEORY":"SGP4","TIME_SYSTEM":"UTC","PERIAPSIS":"545.449","APOAPSIS":"549.046","SEMIMAJOR_AXIS":"6925.383","LAUNCH_DATE":"2020-02-17","RCS_SIZE":"LARGE","CLASSIFICATION_TYPE":"U","RA_OF_ASC_NODE":"63.5626","OBJECT_NAME":"STARLINK-1247","OBJECT_ID":"2020-012BL","REF_FRAME":"TEME","TLE_LINE2":"2 45236  53.0583  63.5626 0002597  50.9885 309.1335 15.06388861128003","NORAD_CAT_ID":"45236","CENTER_NAME":"EARTH","EPOCH":"2022-06-02T17:21:54.932544","MEAN_ANOMALY":"309.1335","ECCENTRICITY":"0.00025970","TLE_LINE1":"1 45236U 20012BL  22153.72355246 -.00000957  00000-0 -45330-4 0  9994","INCLINATION":"53.0583","COUNTRY_CODE":"US","PERIOD":"95.593","MEAN_MOTION_DOT":"-0.00000957","BSTAR":"-0.00004533000000","GP_ID":"205209795","MEAN_MOTION":"15.06388861","REV_AT_EPOCH":"12800","ELEMENT_SET_NO":"999","FILE":"3477983","EPHEMERIS_TYPE":"0","SITE":"AFETR"}];
